NORAD_CAT_ID,OBJECT_NAME,OBJECT_TYPE,EPOCH,MEAN_MOTION,ECCENTRICITY,INCLINATION,RA_OF_ASC_NODE,ARG_OF_PERICENTER,MEAN_ANOMALY,BSTAR,MEAN_MOTION_DOT,MEAN_MOTION_DDOT,TLE_LINE0,TLE_LINE1,TLE_LINE2,SEMIMAJOR_AXIS,PERIOD,APOGEE,PERIGEE,DECAYED
50830.0,STARLINK-3278,PAYLOAD,2022-06-26 03:51:06,15.08836273,0.0002551,53.2171,130.8564,43.4194,316.6999,-5.5835e-05,-1.177e-05,0.0,0 STARLINK-3278,1 50830U 22001AD  22177.16049765 -.00001177  00000-0 -55835-4 0  9996,2 50830  53.2171 130.8564 0002551  43.4194 316.6999 15.08836273 27355,6917.892,95.438,541.5219999999998,537.992,0.0
50830.0,STARLINK-3278,PAYLOAD,2022-06-26 13:23:25,15.08835631,0.0002585,53.2186,129.0723,44.2046,315.9152,9.659e-05,1.249e-05,0.0,0 STARLINK-3278,1 50830U 22001AD  22177.55793851  .00001249  00000-0  96590-4 0  9992,2 50830  53.2186 129.0723 0002585  44.2046 315.9152 15.08835631 26146,6917.894,95.438,541.547,537.97,0.0
50830.0,STARLINK-3278,PAYLOAD,2022-06-27 03:41:53,15.08845243,0.0002609,53.2186,126.396,45.0797,315.0406,9.4774e-05,1.22e-05,0.0,0 STARLINK-3278,1 50830U 22001AD  22178.15409304  .00001220  00000-0  94774-4 0  9997,2 50830  53.2186 126.3960 0002609  45.0797 315.0406 15.08845243 27502,6917.864000000001,95.437,541.534,537.924,0.0
50830.0,STARLINK-3278,PAYLOAD,2022-06-27 05:17:16,15.08846882,0.0002616,53.2186,126.0987,45.2546,314.8659,0.00010847,1.439e-05,0.0,0 STARLINK-3278,1 50830U 22001AD  22178.22033164  .00001439  00000-0  10847-3 0  9992,2 50830  53.2186 126.0987 0002616  45.2546 314.8659 15.08846882 26247,6917.859,95.437,541.534,537.915,0.0
50830.0,STARLINK-3278,PAYLOAD,2022-06-27 19:35:45,15.08836404,0.0002587,53.2185,123.4227,45.9331,314.1873,0.00010203,1.336e-05,0.0,0 STARLINK-3278,1 50830U 22001AD  22178.81649826  .00001336  00000-0  10203-3 0  9997,2 50830  53.2185 123.4227 0002587  45.9331 314.1873 15.08836404 26330,6917.891,95.438,541.5459999999998,537.967,0.0
50830.0,STARLINK-3278,PAYLOAD,2022-06-28 03:32:41,15.08835581,0.0002557,53.2185,121.9361,46.1877,313.9327,8.3707e-05,1.044e-05,0.0,0 STARLINK-3278,1 50830U 22001AD  22179.14770045  .00001044  00000-0  83707-4 0  9998,2 50830  53.2185 121.9361 0002557  46.1877 313.9327 15.08835581 27659,6917.894,95.438,541.528,537.99,0.0
50830.0,STARLINK-3278,PAYLOAD,2022-06-28 13:04:59,15.08839769,0.0002576,53.2186,120.152,46.06,314.0604,9.6176e-05,1.243e-05,0.0,0 STARLINK-3278,1 50830U 22001AD  22179.54513835  .00001243  00000-0  96176-4 0  9999,2 50830  53.2186 120.1520 0002576  46.0600 314.0604 15.08839769 26440,6917.880999999999,95.438,541.528,537.964,0.0
50830.0,STARLINK-3278,PAYLOAD,2022-06-29 12:55:47,15.08833348,0.0002533,53.2188,115.6915,47.6314,312.4893,-6.7227e-05,-1.358e-05,0.0,0 STARLINK-3278,1 50830U 22001AD  22180.53874758 -.00001358  00000-0 -67227-4 0  9998,2 50830  53.2188 115.6915 0002533  47.6314 312.4893 15.08833348 26596,6917.901,95.438,541.518,538.013,0.0
50830.0,STARLINK-3278,PAYLOAD,2022-06-30 04:49:39,15.0883379,0.0002565,53.2189,112.7179,47.9734,312.1476,3.2341e-05,2.26e-06,0.0,0 STARLINK-3278,1 50830U 22001AD  22181.20114711  .00000226  00000-0  32341-4 0  9999,2 50830  53.2189 112.7179 0002565  47.9734 312.1476 15.08833790 26697,6917.899,95.438,541.539,537.99,0.0
50830.0,STARLINK-3278,PAYLOAD,2022-06-30 12:46:34,15.08837378,0.0002565,53.2189,111.2312,48.3512,311.7699,3.7707e-05,3.12e-06,0.0,0 STARLINK-3278,1 50830U 22001AD  22181.53234568  .00000312  00000-0  37707-4 0  9995,2 50830  53.2189 111.2312 0002565  48.3512 311.7699 15.08837378 28015,6917.888000000001,95.438,541.528,537.979,0.0
50830.0,STARLINK-3278,PAYLOAD,2022-07-01 12:37:21,15.08841252,0.0002634,53.219,106.7712,49.9356,310.1866,0.00014614,2.038e-05,0.0,0 STARLINK-3278,1 50830U 22001AD  22182.52594157  .00002038  00000-0  14614-3 0  9996,2 50830  53.2190 106.7712 0002634  49.9356 310.1866 15.08841252 26899,6917.877,95.437,541.564,537.919,0.0
50830.0,STARLINK-3278,PAYLOAD,2022-07-02 02:55:49,15.08846945,0.000264,53.2192,104.0948,51.5944,308.5285,0.00012228,1.659e-05,0.0,0 STARLINK-3278,1 50830U 22001AD  22183.12209780  .00001659  00000-0  12228-3 0  9995,2 50830  53.2192 104.0948 0002640  51.5944 308.5285 15.08846945 28254,6917.859,95.437,541.55,537.898,0.0
50830.0,STARLINK-3278,PAYLOAD,2022-07-02 04:31:12,15.0885081,0.0002648,53.2192,103.7974,49.5402,310.5821,7.422800000000001e-05,8.93e-06,0.0,0 STARLINK-3278,1 50830U 22001AD  22183.18833665  .00000893  00000-0  74228-4 0  9994,2 50830  53.2192 103.7974 0002648  49.5402 310.5821 15.08850810 26997,6917.847,95.437,541.544,537.881,0.0
50830.0,STARLINK-3278,PAYLOAD,2022-07-03 04:21:59,15.08849017,0.0002663,53.2188,99.3376,53.3753,306.7484,0.00013861,1.919e-05,0.0,0 STARLINK-3278,1 50830U 22001AD  22184.18193393  .00001919  00000-0  13861-3 0  9997,2 50830  53.2188  99.3376 0002663  53.3753 306.7484 15.08849017 27144,6917.853,95.437,541.56,537.876,0.0
50830.0,STARLINK-3278,PAYLOAD,2022-07-03 21:51:13,15.08854685,0.0002725,53.2193,96.0669,54.7708,305.3539,6.1944e-05,6.98e-06,0.0,0 STARLINK-3278,1 50830U 22001AD  22184.91056767  .00000698  00000-0  61944-4 0  9990,2 50830  53.2193  96.0669 0002725  54.7708 305.3539 15.08854685 27258,6917.8359999999975,95.437,541.586,537.815,0.0
50830.0,STARLINK-3278,PAYLOAD,2022-07-04 04:12:47,15.08832445,0.0002592,53.219,94.8775,53.8776,306.2455,-0.00013161,-2.382e-05,0.0,0 STARLINK-3278,1 50830U 22001AD  22185.17554684 -.00002382  00000-0 -13161-3 0  9991,2 50830  53.2190  94.8775 0002592  53.8776 306.2455 15.08832445 28568,6917.903,95.438,541.562,537.975,0.0
50830.0,STARLINK-3278,PAYLOAD,2022-07-04 10:34:19,15.08832745,0.0002581,53.2191,93.6881,53.8404,306.2827,-0.00010759,-2e-05,0.0,0 STARLINK-3278,1 50830U 22001AD  22185.44050720 -.00002000  00000-0 -10759-3 0  9990,2 50830  53.2191  93.6881 0002581  53.8404 306.2827 15.08832745 27330,6917.903,95.438,541.553,537.982,0.0
50830.0,STARLINK-3278,PAYLOAD,2022-07-04 21:42:01,15.08831669,0.0002636,53.2182,91.6058,51.7889,308.334,-0.00015063,-2.685e-05,0.0,0 STARLINK-3278,1 50830U 22001AD  22185.90418308 -.00002685  00000-0 -15063-3 0  9993,2 50830  53.2182  91.6058 0002636  51.7889 308.3340 15.08831669 27404,6917.906,95.438,541.594,537.947,0.0
50830.0,STARLINK-3278,PAYLOAD,2022-07-05 02:28:10,15.08834538,0.0002648999999999,53.2182,90.7144,53.3876,306.736,-7.8067e-05,-1.531e-05,0.0,0 STARLINK-3278,1 50830U 22001AD  22186.10290286 -.00001531  00000-0 -78067-4 0  9992,2 50830  53.2182  90.7144 0002649  53.3876 306.7360 15.08834538 28704,6917.897,95.438,541.595,537.93,0.0
50830.0,STARLINK-3278,PAYLOAD,2022-07-05 10:25:06,15.08837135,0.0002624,53.2183,89.2279,54.3074,305.8162,-2.5224e-05,-6.900000000000003e-06,0.0,0 STARLINK-3278,1 50830U 22001AD  22186.43410279 -.00000690  00000-0 -25224-4 0  9996,2 50830  53.2183  89.2279 0002624  54.3074 305.8162 15.08837135 27481,6917.889,95.438,541.569,537.939,0.0
50830.0,STARLINK-3278,PAYLOAD,2022-07-05 21:32:48,15.08838592,0.0002566,53.2183,87.1463,55.0729,305.0504,0.00017204,2.451e-05,0.0,0 STARLINK-3278,1 50830U 22001AD  22186.89778438  .00002451  00000-0  17204-3 0  9993,2 50830  53.2183  87.1463 0002566  55.0729 305.0504 15.08838592 27551,6917.885,95.438,541.525,537.975,0.0
50830.0,STARLINK-3278,PAYLOAD,2022-07-06 03:54:21,15.08842608,0.0002605,53.2181,85.9571,54.8164,305.3072,0.00031683,4.758e-05,0.0,0 STARLINK-3278,1 50830U 22001AD  22187.16274515  .00004758  00000-0  31683-3 0  9990,2 50830  53.2181  85.9571 0002605  54.8164 305.3072 15.08842608 28860,6917.871999999999,95.437,541.54,537.935,0.0
50830.0,STARLINK-3278,PAYLOAD,2022-07-06 10:15:53,15.08847643,0.0002552,53.2179,84.7676,55.665,304.4583,0.00045871,7.021e-05,0.0,0 STARLINK-3278,1 50830U 22001AD  22187.42770460  .00007021  00000-0  45871-3 0  9999,2 50830  53.2179  84.7676 0002552  55.6650 304.4583 15.08847643 27635,6917.857,95.437,541.487,537.957,0.0
50830.0,STARLINK-3278,PAYLOAD,2022-07-07 03:45:08,15.08834871,0.0002565,53.2182,81.4965,57.4506,302.6733,7.2341e-05,8.63e-06,0.0,0 STARLINK-3278,1 50830U 22001AD  22188.15635093  .00000863  00000-0  72341-4 0  9992,2 50830  53.2182  81.4965 0002565  57.4506 302.6733 15.08834871 29018,6917.896,95.438,541.536,537.987,0.0
50830.0,STARLINK-3278,PAYLOAD,2022-07-07 05:20:31,15.08835457,0.0002565,53.2181,81.199,57.3666,302.7573,7.8563e-05,9.62e-06,0.0,0 STARLINK-3278,1 50830U 22001AD  22188.22259090  .00000962  00000-0  78563-4 0  9991,2 50830  53.2181  81.1990 0002565  57.3666 302.7573 15.08835457 27751,6917.894,95.438,541.534,537.985,0.0
50830.0,STARLINK-3278,PAYLOAD,2022-07-07 21:14:23,15.08846576,0.0002569,53.2186,78.2253,58.4902,301.6341,0.00022259,3.257e-05,0.0,0 STARLINK-3278,1 50830U 22001AD  22188.88498870  .00003257  00000-0  22259-3 0  9994,2 50830  53.2186  78.2253 0002569  58.4902 301.6341 15.08846576 27850,6917.86,95.437,541.502,537.948,0.0
50830.0,STARLINK-3278,PAYLOAD,2022-07-08 00:25:09,15.08849548,0.000254,53.2182,77.6305,59.2376,300.8866,0.00030701,4.602e-05,0.0,0 STARLINK-3278,1 50830U 22001AD  22189.01746726  .00004602  00000-0  30701-3 0  9992,2 50830  53.2182  77.6305 0002540  59.2376 300.8866 15.08849548 29149,6917.851,95.437,541.4730000000002,537.9590000000002,0.0
50830.0,STARLINK-3278,PAYLOAD,2022-07-08 09:57:27,15.08860174,0.0002546,53.2184,75.8464,59.6245,300.4999,0.00047419,7.271e-05,0.0,0 STARLINK-3278,1 50830U 22001AD  22189.41490107  .00007271  00000-0  47419-3 0  9994,2 50830  53.2184  75.8464 0002546  59.6245 300.4999 15.08860174 27938,6917.819,95.436,541.445,537.922,0.0
50830.0,STARLINK-3278,PAYLOAD,2022-07-08 16:18:59,15.08863465,0.0002553,53.2184,74.6569,60.6516,299.4731,0.00049788,7.65e-05,0.0,0 STARLINK-3278,1 50830U 22001AD  22189.67985776  .00007650  00000-0  49788-3 0  9995,2 50830  53.2184  74.6569 0002553  60.6516 299.4731 15.08863465 27973,6917.809,95.436,541.44,537.908,0.0
